{
"type": "FeatureCollection",
"name": "baramati_panchayats_clean",
"crs": { "type": "name", "properties": { "name": "urn:ogc:def:crs:OGC:1.3:CRS84" } },
"features": [
{ "type": "Feature", "properties": { "SUB_DIST": "Baramati", "DISTRICT": "Pune", "STATE": "Maharashtra", "TYPE": "village", "NAME": "Baburdi", "CEN_2001": "275210419903172200", "TARGET_NAME": "Baburdi", "area_sqkm": 13.56, "centroid_lon": 74.37465, "centroid_lat": 18.27524, "panchayat_id": "P01", "block_id": "B01_BARAMATI", "block_name": "Baramati", "district_name": "Pune", "state_name": "Maharashtra" }, "geometry": { "type": "Polygon", "coordinates": [ [ [ 74.367633229000049, 18.29053199000003 ], [ 74.37027934700005, 18.290240634000039 ], [ 74.37273926400006, 18.290010395000024 ], [ 74.374637088000043, 18.289688552000026 ], [ 74.378070745000045, 18.28896375000005 ], [ 74.380211959000064, 18.288892285000024 ], [ 74.384395585000064, 18.289154620000033 ], [ 74.386898570000071, 18.289158586000042 ], [ 74.39209754300002, 18.289048221000026 ], [ 74.393694714000063, 18.289035855000066 ], [ 74.396784145000083, 18.289579468000056 ], [ 74.398414711000044, 18.289726115000061 ], [ 74.398851527000019, 18.28600642400005 ], [ 74.39902109000009, 18.285064299000052 ], [ 74.399379803000031, 18.283758854000038 ], [ 74.399595696000063, 18.282699728000068 ], [ 74.400263257000077, 18.280656540000049 ], [ 74.400475137000043, 18.278788679000058 ], [ 74.400391248000062, 18.274799678000022 ], [ 74.400405412000055, 18.274057643000052 ], [ 74.40058203500007, 18.271965357000063 ], [ 74.400432911000053, 18.270911408000078 ], [ 74.400499820000064, 18.268962330000022 ], [ 74.400539615000085, 18.26657965500004 ], [ 74.400540442000093, 18.264388645000054 ], [ 74.399880485000054, 18.264424657000063 ], [ 74.39891056700003, 18.264099532000042 ], [ 74.397980330000053, 18.263524531000023 ], [ 74.397580418000089, 18.263408776000063 ], [ 74.396797053000043, 18.263366365000024 ], [ 74.395980449000049, 18.263603709000048 ], [ 74.395284457000059, 18.264203649000024 ], [ 74.39432682000006, 18.265841701000056 ], [ 74.393448151000015, 18.26714329900005 ], [ 74.393156796000085, 18.267413726000029 ], [ 74.391168010000058, 18.268109799000054 ], [ 74.390077825000049, 18.267494748000047 ], [ 74.389188661000063, 18.267112480000034 ], [ 74.388268757000048, 18.265777564000071 ], [ 74.387726809000071, 18.265589673000019 ], [ 74.386041312, 18.266012495000037 ], [ 74.385384434000045, 18.265877441000043 ], [ 74.383297331000051, 18.265185368000061 ], [ 74.380677312000032, 18.264970555000048 ], [ 74.380001933000059, 18.264804591000029 ], [ 74.379759448000073, 18.262849845000058 ], [ 74.378771856000029, 18.262656474000035 ], [ 74.378151138000064, 18.262753798000062 ], [ 74.37609671400007, 18.26456274700007 ], [ 74.375251795000054, 18.264973436000048 ], [ 74.372559314000043, 18.264208031000067 ], [ 74.371283588000054, 18.264191452000034 ], [ 74.368609152000019, 18.263792034000058 ], [ 74.366974294000045, 18.263537210000031 ], [ 74.36445672300006, 18.262779949000045 ], [ 74.363235510000038, 18.262667292000057 ], [ 74.362088038000067, 18.262677881000055 ], [ 74.360744110000027, 18.26276469600003 ], [ 74.359549299000051, 18.263760050000027 ], [ 74.358798864000036, 18.264453614000047 ], [ 74.356841325000048, 18.266897877000076 ], [ 74.35561302300006, 18.266614899000043 ], [ 74.35466767700008, 18.265863144000036 ], [ 74.353884749000031, 18.264918089000048 ], [ 74.353044197000017, 18.264043539000053 ], [ 74.352280853000067, 18.263680535000045 ], [ 74.350669780000047, 18.26405552000006 ], [ 74.349960547000094, 18.264092580000064 ], [ 74.348463635000044, 18.263706071000055 ], [ 74.346816454000091, 18.26384861400004 ], [ 74.34519195600005, 18.263789507000066 ], [ 74.344583995000079, 18.263942801000034 ], [ 74.343969482000048, 18.264829235000033 ], [ 74.342841372000052, 18.266864327000068 ], [ 74.340987264000034, 18.26798567100008 ], [ 74.33974251600003, 18.268991365000034 ], [ 74.340429336000057, 18.270120258000077 ], [ 74.340971914000079, 18.272645975000042 ], [ 74.341330692000042, 18.275171439000079 ], [ 74.341790695000057, 18.276885994000057 ], [ 74.34227691300002, 18.278197366000029 ], [ 74.345473035000055, 18.277949368000069 ], [ 74.348169193000061, 18.277487034000046 ], [ 74.348935211000082, 18.277259163000057 ], [ 74.35233277, 18.275928794000038 ], [ 74.353756379000046, 18.275336553000038 ], [ 74.356534196000027, 18.275531972000064 ], [ 74.359600689000075, 18.275312977000052 ], [ 74.359883505000084, 18.276606381000022 ], [ 74.360682872000027, 18.279033194000021 ], [ 74.361133896000069, 18.281936832000039 ], [ 74.361294516000044, 18.282400106000068 ], [ 74.36155950000007, 18.28252331200002 ], [ 74.362654528000064, 18.281993202000024 ], [ 74.363577076000055, 18.281273528000042 ], [ 74.364490921000098, 18.281100197000058 ], [ 74.365374586000016, 18.280594263000069 ], [ 74.365548388000036, 18.280879296000023 ], [ 74.366682064000031, 18.28413800900006 ], [ 74.367309914000032, 18.286848898000073 ], [ 74.367498569000091, 18.287335278000054 ], [ 74.367605283000074, 18.288831945000027 ], [ 74.367633229000049, 18.29053199000003 ] ] ] } },
{ "type": "Feature", "properties": { "SUB_DIST": "Baramati", "DISTRICT": "Pune", "STATE": "Maharashtra", "TYPE": "village", "NAME": "Dorlewadi", "CEN_2001": "275210419903181700", "TARGET_NAME": "Dorlewadi", "area_sqkm": 9.87, "centroid_lon": 74.60503, "centroid_lat": 18.10187, "panchayat_id": "P02", "block_id": "B01_BARAMATI", "block_name": "Baramati", "district_name": "Pune", "state_name": "Maharashtra" }, "geometry": { "type": "Polygon", "coordinates": [ [ [ 74.61369742300009, 18.126287283000067 ], [ 74.614886721000062, 18.123584483000062 ], [ 74.615717867000043, 18.121567882000026 ], [ 74.615799853000041, 18.121082106000078 ], [ 74.616396873000028, 18.11966412400006 ], [ 74.61668766600009, 18.119203733000067 ], [ 74.617765221000084, 18.116566294000052 ], [ 74.618834192000051, 18.114390323000073 ], [ 74.618789049000043, 18.112594005000066 ], [ 74.619811944000062, 18.112232643000027 ], [ 74.619757827000043, 18.111846080000081 ], [ 74.618966359000069, 18.110853630000069 ], [ 74.618413521000051, 18.10877611900003 ], [ 74.618066818000045, 18.106390599000065 ], [ 74.617973727000063, 18.104921119000046 ], [ 74.617689656000053, 18.102778903000058 ], [ 74.61765411800009, 18.102022110000064 ], [ 74.617389648000099, 18.101133791000056 ], [ 74.61744237200007, 18.100291815000052 ], [ 74.617312427000059, 18.098902541000026 ], [ 74.617086404000091, 18.097538587000027 ], [ 74.616867235000029, 18.096715464000059 ], [ 74.616382456000039, 18.095576167000047 ], [ 74.615855600000032, 18.093724002000041 ], [ 74.615348173, 18.092791066000075 ], [ 74.615192610000065, 18.092166305000031 ], [ 74.614806232000021, 18.091614553000056 ], [ 74.613044823000052, 18.088677408000024 ], [ 74.61254890500004, 18.087786819000026 ], [ 74.61340412600002, 18.086804717000067 ], [ 74.613869257000033, 18.085795836000038 ], [ 74.613938399000048, 18.083841832000076 ], [ 74.613898302000038, 18.083136519000046 ], [ 74.614118852000047, 18.082354634000069 ], [ 74.613276711000083, 18.082145619000073 ], [ 74.610218009000064, 18.083253785000068 ], [ 74.609618995000062, 18.083390373000039 ], [ 74.60933650500003, 18.083637120000049 ], [ 74.608010479000029, 18.084030477000056 ], [ 74.605312724000029, 18.08471955900006 ], [ 74.603417954000065, 18.085258559000067 ], [ 74.601765170000078, 18.085787144000047 ], [ 74.601126320000063, 18.086100439000063 ], [ 74.59934612000005, 18.086697988000026 ], [ 74.597565083000077, 18.087148757000026 ], [ 74.596701605000092, 18.08723744100007 ], [ 74.595568932000049, 18.087173441000061 ], [ 74.593018829000073, 18.087270037000053 ], [ 74.591580158000056, 18.087491140000054 ], [ 74.586331586000014, 18.088765059000025 ], [ 74.585904613000082, 18.08891351200003 ], [ 74.584745696000084, 18.089809960000025 ], [ 74.584266073000052, 18.090251441000081 ], [ 74.584106838000082, 18.090179556000066 ], [ 74.581955801000063, 18.092793295000028 ], [ 74.580525001000083, 18.093907146000053 ], [ 74.58296326600005, 18.095391316000075 ], [ 74.586082261000058, 18.096397987000046 ], [ 74.586883334000049, 18.096564974000046 ], [ 74.587719055000051, 18.097022343000049 ], [ 74.588680320000037, 18.097436427000048 ], [ 74.590546139000082, 18.098359809000041 ], [ 74.591814653000043, 18.099065527000054 ], [ 74.594389696000064, 18.100232002000038 ], [ 74.595861747000072, 18.10085283900003 ], [ 74.59730847600008, 18.101257058000048 ], [ 74.5972546940001, 18.102169642000032 ], [ 74.59678999700003, 18.103335974000061 ], [ 74.597954288000068, 18.103944823000067 ], [ 74.598532674000069, 18.104411712000061 ], [ 74.600045652000048, 18.105891084000067 ], [ 74.598686895000071, 18.107623330000024 ], [ 74.598379149000039, 18.108095600000073 ], [ 74.596845621000071, 18.109992715000036 ], [ 74.597670557000072, 18.110825682000044 ], [ 74.600427479000075, 18.113697325000036 ], [ 74.601380012000035, 18.114776170000031 ], [ 74.600725766000039, 18.116932821000034 ], [ 74.601438789000042, 18.117985205000032 ], [ 74.601449904000063, 18.118115271000026 ], [ 74.602381728000054, 18.119358186000063 ], [ 74.603854013000046, 18.120431924000062 ], [ 74.604184368000062, 18.120105153000058 ], [ 74.606594718000053, 18.121969611000058 ], [ 74.608247275000053, 18.123306249000052 ], [ 74.609554637000031, 18.124203345000073 ], [ 74.610930875000065, 18.125416172000026 ], [ 74.612506536000055, 18.12635346500003 ], [ 74.61369742300009, 18.126287283000067 ] ] ] } },
{ "type": "Feature", "properties": { "SUB_DIST": "Baramati", "DISTRICT": "Pune", "STATE": "Maharashtra", "TYPE": "village", "NAME": "Gojubavi", "CEN_2001": "275210419903173700", "TARGET_NAME": "Gojubavi", "area_sqkm": 16.55, "centroid_lon": 74.57355, "centroid_lat": 18.23789, "panchayat_id": "P03", "block_id": "B01_BARAMATI", "block_name": "Baramati", "district_name": "Pune", "state_name": "Maharashtra" }, "geometry": { "type": "Polygon", "coordinates": [ [ [ 74.578588215000067, 18.262698796000052 ], [ 74.579828981000063, 18.259843874000069 ], [ 74.580123693000104, 18.258280438000043 ], [ 74.580981344000065, 18.258077089000039 ], [ 74.583653389000077, 18.255084569000079 ], [ 74.584823192000044, 18.25360861200005 ], [ 74.585742586000023, 18.253001534000077 ], [ 74.588104462000061, 18.252303298000072 ], [ 74.589532142000039, 18.251562966000051 ], [ 74.591689357000064, 18.251297334000071 ], [ 74.592371124000053, 18.249948022000073 ], [ 74.593298145000063, 18.247589693000066 ], [ 74.594288380000094, 18.243140925000031 ], [ 74.595157666000034, 18.239955048000077 ], [ 74.59550090700003, 18.238790112000061 ], [ 74.596050959000095, 18.236492596000062 ], [ 74.596557026000085, 18.23376504700008 ], [ 74.596596621000074, 18.233228240000074 ], [ 74.597309628000076, 18.228114887000057 ], [ 74.59731812900003, 18.227688067000031 ], [ 74.596714155000029, 18.227488840000031 ], [ 74.596889679000085, 18.223890783000062 ], [ 74.591552742000033, 18.22402835600008 ], [ 74.587642322000079, 18.223819807000037 ], [ 74.585503683000084, 18.223683482000069 ], [ 74.583047819000043, 18.223492775000064 ], [ 74.580127335000043, 18.223316455000028 ], [ 74.57910724900006, 18.22292042100003 ], [ 74.577802925000071, 18.222342369000042 ], [ 74.576459984000067, 18.221126746000039 ], [ 74.57545194000005, 18.220935152000038 ], [ 74.571719641000087, 18.220151983000051 ], [ 74.568876389000081, 18.219833113000053 ], [ 74.567777149000051, 18.219844384000055 ], [ 74.56586195400007, 18.21979156600003 ], [ 74.562349729000061, 18.220095831000034 ], [ 74.560191146000079, 18.220527942000043 ], [ 74.56045838700004, 18.22129924100005 ], [ 74.560233276000091, 18.221381732000054 ], [ 74.55436054300003, 18.222548789000026 ], [ 74.553240670000051, 18.222740755000071 ], [ 74.553038040000047, 18.221841656000038 ], [ 74.547567846000064, 18.222702924000028 ], [ 74.547548958000064, 18.224014484000065 ], [ 74.547362443000068, 18.224858964000084 ], [ 74.548053199000051, 18.227102611000078 ], [ 74.549447282000074, 18.230337207000044 ], [ 74.550475979000055, 18.232084483000051 ], [ 74.551317041000061, 18.233101742000031 ], [ 74.552280585000062, 18.234932035000043 ], [ 74.553382446000043, 18.236664948000055 ], [ 74.553907977000051, 18.238037916000053 ], [ 74.554189946000065, 18.239868291000054 ], [ 74.554667757000061, 18.242530445000053 ], [ 74.554787115000053, 18.242584628000028 ], [ 74.555052307000025, 18.243918270000048 ], [ 74.55569568600005, 18.245848456000033 ], [ 74.556581012000024, 18.246455584000046 ], [ 74.557626904000088, 18.248756411000041 ], [ 74.558138575000029, 18.249647707000062 ], [ 74.560105596000085, 18.252624559000026 ], [ 74.560331186000028, 18.252929516000048 ], [ 74.562936665000066, 18.254590309000037 ], [ 74.563820927000066, 18.255026931000025 ], [ 74.56565729900008, 18.255357876000062 ], [ 74.567539901000046, 18.25627036000003 ], [ 74.569415070000062, 18.257132210000066 ], [ 74.572292119000039, 18.258956577000049 ], [ 74.573091352000034, 18.259617863000074 ], [ 74.576010261000093, 18.262210383000021 ], [ 74.576036158000065, 18.26242059500003 ], [ 74.57697043000006, 18.262526682000036 ], [ 74.577848494000079, 18.262509820000041 ], [ 74.578588215000067, 18.262698796000052 ] ] ] } },
{ "type": "Feature", "properties": { "SUB_DIST": "Baramati", "DISTRICT": "Pune", "STATE": "Maharashtra", "TYPE": "village", "NAME": "Gunwadi", "CEN_2001": "275210419903181400", "TARGET_NAME": "Gunwadi", "area_sqkm": 15.64, "centroid_lon": 74.59304, "centroid_lat": 18.12303, "panchayat_id": "P04", "block_id": "B01_BARAMATI", "block_name": "Baramati", "district_name": "Pune", "state_name": "Maharashtra" }, "geometry": { "type": "Polygon", "coordinates": [ [ [ 74.589858712000066, 18.146456799000081 ], [ 74.590125379000042, 18.146326336000072 ], [ 74.593548144000067, 18.145978263000078 ], [ 74.594451106000065, 18.146152797000074 ], [ 74.596633664000109, 18.145986537000056 ], [ 74.598027128000069, 18.145975596000032 ], [ 74.60008124300002, 18.146043925000075 ], [ 74.601495303000036, 18.146000504000028 ], [ 74.603596877000015, 18.14552479200006 ], [ 74.607062915000029, 18.144909 ], [ 74.607847567000078, 18.144856158000046 ], [ 74.615347533, 18.14400794200003 ], [ 74.61621059600003, 18.14444409500004 ], [ 74.615872144000022, 18.14347176300004 ], [ 74.615558060000069, 18.141255385000029 ], [ 74.615414171000054, 18.139760241000033 ], [ 74.614918407000062, 18.136744885000038 ], [ 74.614849854000056, 18.135687116000046 ], [ 74.614558779000063, 18.133715978000055 ], [ 74.614464899000055, 18.13147918400006 ], [ 74.614571261000052, 18.130391252000038 ], [ 74.614484193000067, 18.129816070000061 ], [ 74.613462129000084, 18.127106300000037 ], [ 74.61369742300009, 18.126287283000067 ], [ 74.612506536000055, 18.12635346500003 ], [ 74.610930875000065, 18.125416172000026 ], [ 74.609554637000031, 18.124203345000073 ], [ 74.608247275000053, 18.123306249000052 ], [ 74.606594718000053, 18.121969611000058 ], [ 74.604184368000062, 18.120105153000058 ], [ 74.603854013000046, 18.120431924000062 ], [ 74.602381728000054, 18.119358186000063 ], [ 74.601449904000063, 18.118115271000026 ], [ 74.601438789000042, 18.117985205000032 ], [ 74.600725766000039, 18.116932821000034 ], [ 74.601380012000035, 18.114776170000031 ], [ 74.600427479000075, 18.113697325000036 ], [ 74.597670557000072, 18.110825682000044 ], [ 74.596845621000071, 18.109992715000036 ], [ 74.598379149000039, 18.108095600000073 ], [ 74.598686895000071, 18.107623330000024 ], [ 74.600045652000048, 18.105891084000067 ], [ 74.598532674000069, 18.104411712000061 ], [ 74.597954288000068, 18.103944823000067 ], [ 74.59678999700003, 18.103335974000061 ], [ 74.5972546940001, 18.102169642000032 ], [ 74.59730847600008, 18.101257058000048 ], [ 74.595861747000072, 18.10085283900003 ], [ 74.594389696000064, 18.100232002000038 ], [ 74.591814653000043, 18.099065527000054 ], [ 74.590546139000082, 18.098359809000041 ], [ 74.588680320000037, 18.097436427000048 ], [ 74.587719055000051, 18.097022343000049 ], [ 74.586883334000049, 18.096564974000046 ], [ 74.586082261000058, 18.096397987000046 ], [ 74.58296326600005, 18.095391316000075 ], [ 74.580525001000083, 18.093907146000053 ], [ 74.578379384000058, 18.095563881000029 ], [ 74.576711131000067, 18.096213154000054 ], [ 74.575553841000044, 18.096784826000032 ], [ 74.573939470000084, 18.09794468400003 ], [ 74.574771796000036, 18.102089026000044 ], [ 74.575493843000046, 18.105264395000066 ], [ 74.575784074000055, 18.109786383000028 ], [ 74.575334456000036, 18.112084521000046 ], [ 74.575797309000038, 18.114672130000031 ], [ 74.575921396000055, 18.115767125000051 ], [ 74.576890783000067, 18.118112738000036 ], [ 74.578012507000025, 18.121366693000031 ], [ 74.579026253000052, 18.124881999000031 ], [ 74.579885120000014, 18.127462908000041 ], [ 74.579890808000059, 18.127576328000035 ], [ 74.580700763000038, 18.129318897000079 ], [ 74.580793110000045, 18.130256928000055 ], [ 74.579200940000092, 18.132156317000071 ], [ 74.578045026000026, 18.133375722000046 ], [ 74.579360504000078, 18.134265970000062 ], [ 74.580297691000069, 18.13479382800006 ], [ 74.580282206000049, 18.135253250000066 ], [ 74.580668277000029, 18.136338018000064 ], [ 74.581030786000042, 18.13691688300003 ], [ 74.581529147000097, 18.138089631000071 ], [ 74.58220055300005, 18.13885541600008 ], [ 74.582982865000076, 18.139143303000029 ], [ 74.584165610000085, 18.139148250000066 ], [ 74.585230768000031, 18.139504674000026 ], [ 74.586067308000054, 18.140304216000061 ], [ 74.586446519000049, 18.140564628000053 ], [ 74.586775104000068, 18.141065475000065 ], [ 74.587048064000044, 18.141263931000029 ], [ 74.587440279000091, 18.141965396000053 ], [ 74.587702170000043, 18.142136964000027 ], [ 74.588911154000058, 18.143320899000059 ], [ 74.589784165000083, 18.14449735300008 ], [ 74.589789236000044, 18.145232618000023 ], [ 74.589695873000039, 18.14577019900003 ], [ 74.589858712000066, 18.146456799000081 ] ] ] } },
{ "type": "Feature", "properties": { "SUB_DIST": "Baramati", "DISTRICT": "Pune", "STATE": "Maharashtra", "TYPE": "village", "NAME": "Hol", "CEN_2001": "275210419903177100", "TARGET_NAME": "Hol", "area_sqkm": 8.53, "centroid_lon": 74.3286, "centroid_lat": 18.10535, "panchayat_id": "P05", "block_id": "B01_BARAMATI", "block_name": "Baramati", "district_name": "Pune", "state_name": "Maharashtra" }, "geometry": { "type": "Polygon", "coordinates": [ [ [ 74.312728553000042, 18.123299999000039 ], [ 74.31664422200005, 18.122446337000039 ], [ 74.317944859000093, 18.122130368000057 ], [ 74.317922320000051, 18.12191101500003 ], [ 74.321313223000061, 18.121066018000029 ], [ 74.321465081000056, 18.121063161000059 ], [ 74.324447131000042, 18.121778878000043 ], [ 74.326797903000042, 18.122214734000067 ], [ 74.326781231000027, 18.122593567000024 ], [ 74.327207500000043, 18.12261127500005 ], [ 74.32739628800006, 18.122328486000072 ], [ 74.328100006000042, 18.121274361000083 ], [ 74.328926447000072, 18.120361798000037 ], [ 74.329527625000097, 18.119106333000047 ], [ 74.330018057000061, 18.118442369000036 ], [ 74.330197515000066, 18.117862636000044 ], [ 74.330993575000051, 18.11575577300005 ], [ 74.331897969000082, 18.115833621000039 ], [ 74.332260654000052, 18.115671982000038 ], [ 74.332046732000023, 18.114972450000046 ], [ 74.331888723000077, 18.114064153000083 ], [ 74.333277346000045, 18.11104542500005 ], [ 74.333771333000044, 18.108896590000029 ], [ 74.334357605000051, 18.108150132000052 ], [ 74.33480910000003, 18.107927615000055 ], [ 74.335725789000051, 18.10785058100004 ], [ 74.336176718000047, 18.107329533000037 ], [ 74.338024952000069, 18.10754642500007 ], [ 74.33827509700005, 18.10436251700003 ], [ 74.33917471400008, 18.104093534000071 ], [ 74.33968167500008, 18.103827852000052 ], [ 74.341446973000075, 18.103988247000078 ], [ 74.342477519000042, 18.104324123000033 ], [ 74.345252709000093, 18.103541416000041 ], [ 74.34588276900007, 18.103316539000044 ], [ 74.34800122200005, 18.103060522000082 ], [ 74.348860653000031, 18.103166691000073 ], [ 74.349768160000053, 18.10235379400007 ], [ 74.350132535000043, 18.101771158000084 ], [ 74.350260388000052, 18.101063204000074 ], [ 74.350627428000067, 18.100633866000067 ], [ 74.351675278000073, 18.10094462700005 ], [ 74.35197142100003, 18.099533411000039 ], [ 74.351565346000029, 18.099249290000042 ], [ 74.351480445000064, 18.098763808000054 ], [ 74.35184590900009, 18.097878649000055 ], [ 74.351935747000084, 18.097257868000046 ], [ 74.351941295000074, 18.096278738000027 ], [ 74.349043191000092, 18.094210636000071 ], [ 74.347314397000062, 18.093436266000026 ], [ 74.346019046000052, 18.09296428500005 ], [ 74.344787813000025, 18.092756821000023 ], [ 74.343239211000096, 18.09206199800008 ], [ 74.33945721000002, 18.089341345000033 ], [ 74.338986836000032, 18.089969022000048 ], [ 74.338305878000014, 18.092138911000063 ], [ 74.338097073000014, 18.093415593000028 ], [ 74.336028360000057, 18.093391807000046 ], [ 74.335581934000047, 18.093198184000077 ], [ 74.33544659100005, 18.092641637000039 ], [ 74.335121624000081, 18.092365639000036 ], [ 74.334465784000045, 18.092284789000075 ], [ 74.333905307000066, 18.092456352000056 ], [ 74.333007735000081, 18.092446015000061 ], [ 74.332140242000037, 18.092655920000031 ], [ 74.329398477000026, 18.093043164000051 ], [ 74.327211787000081, 18.093688096000051 ], [ 74.32556078000006, 18.094391553000037 ], [ 74.323888923000069, 18.095010982000076 ], [ 74.323110954000072, 18.095064810000054 ], [ 74.321101092000049, 18.094706454000061 ], [ 74.319795833000043, 18.095769896000032 ], [ 74.318604650000069, 18.096468149000032 ], [ 74.317663899000109, 18.097274016000032 ], [ 74.315669330000063, 18.099167154000046 ], [ 74.314704405000057, 18.100150741000054 ], [ 74.314421069000076, 18.100911870000061 ], [ 74.314415233000034, 18.10137286600008 ], [ 74.314411792000044, 18.101644768000032 ], [ 74.313832231000049, 18.102454812000079 ], [ 74.314135081000089, 18.103256656000045 ], [ 74.314002299000052, 18.10357325800004 ], [ 74.313571526000018, 18.104038893000052 ], [ 74.312827631000062, 18.105129099000067 ], [ 74.312877361000048, 18.106868151000079 ], [ 74.312867722000078, 18.109050398000029 ], [ 74.312817990000042, 18.111400920000055 ], [ 74.312882263000049, 18.115608263000073 ], [ 74.312820801000044, 18.116545040000066 ], [ 74.312728553000042, 18.123299999000039 ] ] ] } },
{ "type": "Feature", "properties": { "SUB_DIST": "Baramati", "DISTRICT": "Pune", "STATE": "Maharashtra", "TYPE": "village", "NAME": "Katewadi", "CEN_2001": "275210419903181200", "TARGET_NAME": "Katewadi", "area_sqkm": 13.39, "centroid_lon": 74.6633, "centroid_lat": 18.13709, "panchayat_id": "P06", "block_id": "B01_BARAMATI", "block_name": "Baramati", "district_name": "Pune", "state_name": "Maharashtra" }, "geometry": { "type": "Polygon", "coordinates": [ [ [ 74.665160795000091, 18.158719437000059 ], [ 74.665449557000031, 18.156351912000051 ], [ 74.666163739000083, 18.154029490000031 ], [ 74.667349567000031, 18.154102654000042 ], [ 74.668391564000046, 18.150963343000061 ], [ 74.669176740000069, 18.148350251000068 ], [ 74.669828755000083, 18.146643256000058 ], [ 74.671364262000054, 18.143524839000062 ], [ 74.672851019000035, 18.14221507600007 ], [ 74.676550450000036, 18.140360742000041 ], [ 74.676462241000081, 18.139618937000026 ], [ 74.678003734000058, 18.138940121000083 ], [ 74.678187026000032, 18.135516912000071 ], [ 74.678457111000029, 18.131130748000036 ], [ 74.677425132000039, 18.130820520000047 ], [ 74.67664745200004, 18.12918978700003 ], [ 74.676295584000059, 18.128175834000047 ], [ 74.677308898000021, 18.127947154000033 ], [ 74.677580181000053, 18.126014045000034 ], [ 74.677911122000054, 18.123943328000056 ], [ 74.679036415000027, 18.123937273000024 ], [ 74.679952300000068, 18.122857041000032 ], [ 74.681526801000089, 18.121469501000036 ], [ 74.681744040000069, 18.120145410000081 ], [ 74.681604458000052, 18.119507095000078 ], [ 74.681640091000091, 18.11817619500005 ], [ 74.681002212000053, 18.116079255000045 ], [ 74.680991356000035, 18.115152110000057 ], [ 74.681186659000062, 18.114969059000039 ], [ 74.678412707000035, 18.11474210800003 ], [ 74.674308195000023, 18.114261549000052 ], [ 74.667587180000055, 18.114185910000067 ], [ 74.666937031000018, 18.114353557000079 ], [ 74.664004365000054, 18.114769069000037 ], [ 74.660870173, 18.115302494000048 ], [ 74.659480664000057, 18.115267142000054 ], [ 74.65706519500003, 18.11541104000003 ], [ 74.656176659000039, 18.115540275000054 ], [ 74.654952499000061, 18.115461112000052 ], [ 74.65332535900005, 18.115485675000063 ], [ 74.650645085000065, 18.115785338000027 ], [ 74.649471902000059, 18.115763397000027 ], [ 74.646381493000035, 18.115568198000069 ], [ 74.645058310000067, 18.115459424000054 ], [ 74.646933616000069, 18.116706803000056 ], [ 74.64887526800004, 18.116780971000029 ], [ 74.649719455000096, 18.117222747000032 ], [ 74.651026458000061, 18.119457980000053 ], [ 74.651167799000063, 18.120367585000054 ], [ 74.651124538000033, 18.121048322000039 ], [ 74.650896450000047, 18.12152082800003 ], [ 74.650708871000035, 18.122241428000056 ], [ 74.651307299000052, 18.123465147000051 ], [ 74.65115011500005, 18.124034677000054 ], [ 74.650068245000057, 18.124285493000066 ], [ 74.649727924000061, 18.124488557000067 ], [ 74.650016162000028, 18.125117512000028 ], [ 74.650462492000017, 18.126436063000028 ], [ 74.650325337000069, 18.127150278000045 ], [ 74.649732602000014, 18.128080185000044 ], [ 74.649696495000072, 18.12943527300007 ], [ 74.649531927000055, 18.130692772000028 ], [ 74.649031559000036, 18.13240107300004 ], [ 74.649326821000059, 18.133718140000045 ], [ 74.650035330000023, 18.134743415000063 ], [ 74.650387819000031, 18.13542116300005 ], [ 74.650751872000029, 18.137034763000035 ], [ 74.650502667000069, 18.138133180000068 ], [ 74.651280369000062, 18.140762269000049 ], [ 74.651473392000057, 18.142222817000057 ], [ 74.652156241000057, 18.143633134000027 ], [ 74.653045852000034, 18.144550089000067 ], [ 74.65337640500006, 18.14524803800003 ], [ 74.65232964300003, 18.148182879000043 ], [ 74.652382669000076, 18.149512918000028 ], [ 74.652925224000057, 18.150019825000076 ], [ 74.654830332000046, 18.150293507000072 ], [ 74.654774022000069, 18.148620692000062 ], [ 74.657219794000085, 18.148575796000049 ], [ 74.656923402000075, 18.150494006000031 ], [ 74.657073051000054, 18.150703563000036 ], [ 74.657148740000082, 18.152170321000032 ], [ 74.657091945000062, 18.154040072000043 ], [ 74.657040915000039, 18.154401694000061 ], [ 74.65549185200004, 18.154018265000051 ], [ 74.654006831000046, 18.154104457000081 ], [ 74.653802234000054, 18.154884687000056 ], [ 74.65330922000004, 18.157950514000056 ], [ 74.653190748000043, 18.159390580000036 ], [ 74.656825344000083, 18.159784389000038 ], [ 74.656786564000058, 18.160498017000069 ], [ 74.65637716300003, 18.163979381000047 ], [ 74.656434684000033, 18.165626640000024 ], [ 74.656426177000057, 18.168020351000052 ], [ 74.656617111000045, 18.170514115000064 ], [ 74.656799793000047, 18.172442936000035 ], [ 74.654501892000027, 18.173016591000078 ], [ 74.65446976300008, 18.175254647000031 ], [ 74.654251013000078, 18.176357348000071 ], [ 74.655891082000025, 18.17710615500005 ], [ 74.659210586000029, 18.178181134000059 ], [ 74.659549358000049, 18.178678243000036 ], [ 74.662611476000052, 18.180311562000043 ], [ 74.66289557900005, 18.180392019000067 ], [ 74.662734997000015, 18.179062871000042 ], [ 74.662580394000017, 18.17828650000007 ], [ 74.662291683000035, 18.17733559100003 ], [ 74.66232579900003, 18.17712963300005 ], [ 74.662005042000018, 18.176551429000035 ], [ 74.662745197000035, 18.174855774000044 ], [ 74.662713592000046, 18.173715216000065 ], [ 74.663048182000054, 18.172687879000023 ], [ 74.662904703000038, 18.17183870800006 ], [ 74.662788723000034, 18.169933485000062 ], [ 74.662014687000081, 18.169150496000047 ], [ 74.661846284000035, 18.168227891000072 ], [ 74.661656767000082, 18.167678379000051 ], [ 74.661680057000069, 18.165019719000043 ], [ 74.662312717000063, 18.164588453000025 ], [ 74.662672003000054, 18.162350178000054 ], [ 74.662431755000043, 18.16190218700007 ], [ 74.662877679000076, 18.161297845000036 ], [ 74.66308579300005, 18.160044048000028 ], [ 74.663731657000071, 18.15934190300004 ], [ 74.664311072000018, 18.159218133000028 ], [ 74.665160795000091, 18.158719437000059 ] ] ] } },
{ "type": "Feature", "properties": { "SUB_DIST": "Baramati", "DISTRICT": "Pune", "STATE": "Maharashtra", "TYPE": "village", "NAME": "Katphal", "CEN_2001": "275210419903173800", "TARGET_NAME": "Katphal", "area_sqkm": 20.82, "centroid_lon": 74.61694, "centroid_lat": 18.2376, "panchayat_id": "P07", "block_id": "B01_BARAMATI", "block_name": "Baramati", "district_name": "Pune", "state_name": "Maharashtra" }, "geometry": { "type": "Polygon", "coordinates": [ [ [ 74.62810324100009, 18.26271436300004 ], [ 74.628860748000079, 18.262099428000056 ], [ 74.628974243000059, 18.261814269000073 ], [ 74.630410925000049, 18.260123719000031 ], [ 74.631799564000062, 18.258628383000026 ], [ 74.632762812000038, 18.257935847000059 ], [ 74.636441436000027, 18.257620615000064 ], [ 74.63745741300005, 18.257112398000061 ], [ 74.640532381000071, 18.255748654000055 ], [ 74.640900300000055, 18.255631 ], [ 74.640725823000082, 18.25376340300005 ], [ 74.640393075000091, 18.25093112900004 ], [ 74.639270808000049, 18.247354969000074 ], [ 74.638418411000018, 18.246540707000062 ], [ 74.637619295000064, 18.243211972000037 ], [ 74.636594954000032, 18.243115971000066 ], [ 74.636404278000043, 18.242053757000065 ], [ 74.634412138000059, 18.240831641000057 ], [ 74.633588859000028, 18.240369581000035 ], [ 74.632709634000037, 18.238220568000028 ], [ 74.635025178000021, 18.238756484000078 ], [ 74.635222866000049, 18.23795975000008 ], [ 74.635169854000083, 18.237364999000025 ], [ 74.634989914000073, 18.237311223000066 ], [ 74.635221881000064, 18.236463056000048 ], [ 74.635513560000064, 18.234812261000062 ], [ 74.636042069000041, 18.231435655000041 ], [ 74.635322092000067, 18.231684719000047 ], [ 74.63432841000008, 18.23192629700003 ], [ 74.633065384000091, 18.232318191000047 ], [ 74.632283402000041, 18.232722145000022 ], [ 74.63216989900009, 18.232454433000044 ], [ 74.631917921000095, 18.231238468000079 ], [ 74.633055757000079, 18.228323915000029 ], [ 74.633712352, 18.227030612000082 ], [ 74.636732556000055, 18.227193146000047 ], [ 74.63700087200003, 18.222446578000067 ], [ 74.637113049000078, 18.221208584000067 ], [ 74.637429405000049, 18.216687290000039 ], [ 74.635864235000042, 18.216351828000032 ], [ 74.634093968000073, 18.215817623000081 ], [ 74.63363110300007, 18.215776128000076 ], [ 74.629925786000058, 18.215665527000059 ], [ 74.626879569000039, 18.215303089000027 ], [ 74.625821476000041, 18.213974500000067 ], [ 74.622290616000029, 18.213688320000077 ], [ 74.617631330000052, 18.212138937000077 ], [ 74.616780361000053, 18.211810737000068 ], [ 74.615868995000085, 18.211582168000067 ], [ 74.615503425000057, 18.211805440000038 ], [ 74.61070645300002, 18.212741214000058 ], [ 74.609051376000068, 18.212995850000031 ], [ 74.60919900800009, 18.214457252000045 ], [ 74.60502250200004, 18.217980377000064 ], [ 74.604301459000055, 18.218627652000066 ], [ 74.597103274000077, 18.221470073000031 ], [ 74.597003179000083, 18.221564065000056 ], [ 74.596889679000085, 18.223890783000062 ], [ 74.596714155000029, 18.227488840000031 ], [ 74.59731812900003, 18.227688067000031 ], [ 74.597309628000076, 18.228114887000057 ], [ 74.596596621000074, 18.233228240000074 ], [ 74.596557026000085, 18.23376504700008 ], [ 74.596050959000095, 18.236492596000062 ], [ 74.59550090700003, 18.238790112000061 ], [ 74.595157666000034, 18.239955048000077 ], [ 74.594288380000094, 18.243140925000031 ], [ 74.593298145000063, 18.247589693000066 ], [ 74.592371124000053, 18.249948022000073 ], [ 74.591689357000064, 18.251297334000071 ], [ 74.593087640000093, 18.252503891000057 ], [ 74.594431272000065, 18.253551621000046 ], [ 74.595417166000047, 18.254025505000076 ], [ 74.596772376000033, 18.254942862000064 ], [ 74.598022381000092, 18.255313092000048 ], [ 74.60020657900003, 18.256262962000051 ], [ 74.60120245800006, 18.256751413000078 ], [ 74.602513161000061, 18.257122225000046 ], [ 74.603824933000055, 18.257396392000032 ], [ 74.608420373000044, 18.257243920000064 ], [ 74.609662565000065, 18.25760139800008 ], [ 74.610672515000019, 18.258063761000077 ], [ 74.611977139000018, 18.257769677000056 ], [ 74.612531898000029, 18.257792949000077 ], [ 74.614416189000067, 18.257693355000072 ], [ 74.618259158000058, 18.25896712600008 ], [ 74.620486069000037, 18.260290836000021 ], [ 74.621332409000047, 18.260654555000027 ], [ 74.624378340000064, 18.261562029000061 ], [ 74.62448375600006, 18.261555729000069 ], [ 74.62810324100009, 18.26271436300004 ] ] ] } },
{ "type": "Feature", "properties": { "SUB_DIST": "Baramati", "DISTRICT": "Pune", "STATE": "Maharashtra", "TYPE": "village", "NAME": "Khandaj", "CEN_2001": "275210419903180500", "TARGET_NAME": "Khandaj", "area_sqkm": 15.25, "centroid_lon": 74.52964, "centroid_lat": 18.07953, "panchayat_id": "P08", "block_id": "B01_BARAMATI", "block_name": "Baramati", "district_name": "Pune", "state_name": "Maharashtra" }, "geometry": { "type": "Polygon", "coordinates": [ [ [ 74.544319577000081, 18.101078201000067 ], [ 74.544186141000083, 18.099982915000055 ], [ 74.544510864000088, 18.097615615000056 ], [ 74.544478984000094, 18.096519376000057 ], [ 74.544499645000059, 18.094472873000026 ], [ 74.544661748000095, 18.091730127000066 ], [ 74.544820042000097, 18.089701044000034 ], [ 74.544733569000087, 18.089231483000049 ], [ 74.544776357000046, 18.087781165000028 ], [ 74.544852084000084, 18.083554918000061 ], [ 74.544985684000068, 18.082745335000023 ], [ 74.545463780000048, 18.081530594000068 ], [ 74.546042804000081, 18.078778041000078 ], [ 74.546413462000046, 18.076529098000034 ], [ 74.546512629000077, 18.076145498000077 ], [ 74.546733713000037, 18.074490859000036 ], [ 74.546870112000065, 18.073814419000033 ], [ 74.547613504000111, 18.071726049000063 ], [ 74.548155979000072, 18.069256406000026 ], [ 74.548699550000052, 18.068658252000031 ], [ 74.547627469000119, 18.068150141000046 ], [ 74.546194624000094, 18.067392760000075 ], [ 74.545561453000062, 18.06651639700004 ], [ 74.545195560000096, 18.065536740000024 ], [ 74.544002009000067, 18.063233192000038 ], [ 74.542489668000044, 18.061668815000075 ], [ 74.539850436000052, 18.059753254000043 ], [ 74.538956936000019, 18.059446379000061 ], [ 74.538227002000042, 18.059316573000043 ], [ 74.537670676000062, 18.059121816000076 ], [ 74.537355832000046, 18.058858794000066 ], [ 74.536720267000092, 18.058728270000071 ], [ 74.53549703000003, 18.058241837000022 ], [ 74.534889251000052, 18.058145460000052 ], [ 74.533740520000038, 18.057705746000071 ], [ 74.53222252400009, 18.057549403000053 ], [ 74.530657402000031, 18.057638055000041 ], [ 74.529348392, 18.058020581000047 ], [ 74.526012947000083, 18.058834160000064 ], [ 74.525295288000066, 18.058962068000032 ], [ 74.524102050000067, 18.059174730000056 ], [ 74.521922655000097, 18.059724598000059 ], [ 74.519971180000084, 18.060086229000031 ], [ 74.518969365000046, 18.060348288000053 ], [ 74.518220376000045, 18.060410980000025 ], [ 74.516732441000045, 18.060679623000052 ], [ 74.516090448000071, 18.06074336600005 ], [ 74.515029100000064, 18.060739215000066 ], [ 74.514233960000098, 18.060660304000066 ], [ 74.512940525000033, 18.060313149000024 ], [ 74.51268346100008, 18.060609644000063 ], [ 74.513061300000061, 18.061792123000032 ], [ 74.513545858000043, 18.063102574000023 ], [ 74.513848083000084, 18.064992355000076 ], [ 74.513704262000033, 18.065423844000058 ], [ 74.513251507000064, 18.066019813000022 ], [ 74.513536629000058, 18.066518346000066 ], [ 74.514592054000062, 18.06719626000006 ], [ 74.514715428000059, 18.067570915000033 ], [ 74.514158675000047, 18.068482335000052 ], [ 74.513930418000029, 18.069177234000048 ], [ 74.51345272500005, 18.069609510000074 ], [ 74.512839621000083, 18.069731804000067 ], [ 74.51252764200008, 18.070074206000076 ], [ 74.512383918000069, 18.070737921000042 ], [ 74.511956186000091, 18.071461016000061 ], [ 74.511861134000071, 18.071834316000039 ], [ 74.512071781000031, 18.073423768000055 ], [ 74.512524615000089, 18.078761911000075 ], [ 74.512970728000084, 18.080891572000038 ], [ 74.513311048000062, 18.082799768000026 ], [ 74.514057233000074, 18.085168014000033 ], [ 74.514639838000065, 18.088697446000026 ], [ 74.514766660000106, 18.089924645000053 ], [ 74.514826175000067, 18.091541731000063 ], [ 74.514813573000097, 18.092528586000068 ], [ 74.514704771000098, 18.094364183000042 ], [ 74.514675655000104, 18.096659234000068 ], [ 74.514046923000095, 18.096894179000063 ], [ 74.51403513300005, 18.099001840000028 ], [ 74.515319985000104, 18.099236241000025 ], [ 74.516828817000018, 18.099419469000054 ], [ 74.520533342000078, 18.100003933000039 ], [ 74.52413053500004, 18.100006662000055 ], [ 74.525009432000047, 18.099869926000057 ], [ 74.525692698000057, 18.100143702000025 ], [ 74.527120606000054, 18.100336269000024 ], [ 74.528338831000013, 18.100556604000079 ], [ 74.531250942000057, 18.100517140000026 ], [ 74.533391250000079, 18.100403959000062 ], [ 74.533984798000063, 18.100420314000075 ], [ 74.537522946000095, 18.100925929000034 ], [ 74.538679183000056, 18.101230213000065 ], [ 74.540287100000057, 18.101163843000052 ], [ 74.544319577000081, 18.101078201000067 ] ] ] } },
{ "type": "Feature", "properties": { "SUB_DIST": "Baramati", "DISTRICT": "Pune", "STATE": "Maharashtra", "TYPE": "village", "NAME": "Korhale Bk", "CEN_2001": "275210419903176800", "TARGET_NAME": "Korhale Bk.", "area_sqkm": 19.82, "centroid_lon": 74.39666, "centroid_lat": 18.13079, "panchayat_id": "P09", "block_id": "B01_BARAMATI", "block_name": "Baramati", "district_name": "Pune", "state_name": "Maharashtra" }, "geometry": { "type": "Polygon", "coordinates": [ [ [ 74.415184289000109, 18.152982378000047 ], [ 74.414983250000049, 18.151507274000039 ], [ 74.414713144000089, 18.149952005000049 ], [ 74.414978867000059, 18.149882584000068 ], [ 74.41589456800007, 18.149259525000048 ], [ 74.416033761000079, 18.148700228000052 ], [ 74.415994698000105, 18.147234380000043 ], [ 74.416211605000086, 18.144939154000046 ], [ 74.415297622000097, 18.143364963000071 ], [ 74.415457091000064, 18.142811555000037 ], [ 74.416345407000065, 18.14229814700008 ], [ 74.416397223000061, 18.140350070000068 ], [ 74.416621115000069, 18.139387247000062 ], [ 74.416410798000086, 18.138834604000071 ], [ 74.415264335000089, 18.138461043000067 ], [ 74.415140444000045, 18.13778305600005 ], [ 74.415692964000087, 18.136950176000035 ], [ 74.41536050600007, 18.135575220000081 ], [ 74.415659606000105, 18.134449623000027 ], [ 74.416557545000074, 18.133500978000029 ], [ 74.417122886000087, 18.132505463000033 ], [ 74.416879244000043, 18.132303028000027 ], [ 74.417063653000099, 18.131930952000065 ], [ 74.416980784000046, 18.130952746000052 ], [ 74.416933874000065, 18.126936233000034 ], [ 74.417311750000081, 18.123517295000056 ], [ 74.416880259000052, 18.123326451000025 ], [ 74.414771244000065, 18.122965439000044 ], [ 74.415238997000074, 18.121218014000085 ], [ 74.414676185000104, 18.12114542900003 ], [ 74.41475291400009, 18.120390168000032 ], [ 74.416138141000033, 18.118829499000075 ], [ 74.415002760000064, 18.118717073000028 ], [ 74.412097604000067, 18.119066085000046 ], [ 74.411822007000083, 18.117356613000034 ], [ 74.411735767000053, 18.11649152300004 ], [ 74.411866672000045, 18.115395334000031 ], [ 74.412096898000073, 18.114639390000036 ], [ 74.412407906000055, 18.114304125000054 ], [ 74.413150761000082, 18.113869242000082 ], [ 74.414046722000094, 18.109506793000037 ], [ 74.413952988000077, 18.108388624000046 ], [ 74.414630687000084, 18.107404774000031 ], [ 74.414893895000048, 18.107359139000042 ], [ 74.414810985000059, 18.105963122000055 ], [ 74.41243058200007, 18.107569861000062 ], [ 74.412980676000075, 18.10865982200005 ], [ 74.412887210000051, 18.109777994000073 ], [ 74.412589200000085, 18.109798749000053 ], [ 74.412415990000071, 18.111029221000027 ], [ 74.409667354000092, 18.111474760000029 ], [ 74.40942491400007, 18.111568 ], [ 74.408181702000036, 18.112461923000076 ], [ 74.406886942000028, 18.113001656000055 ], [ 74.404521676000073, 18.113175064000082 ], [ 74.403255684000072, 18.112423871000029 ], [ 74.402391299000044, 18.110161337000029 ], [ 74.402156065000057, 18.109690999000065 ], [ 74.402029042000052, 18.108979706000074 ], [ 74.401627245000071, 18.108830318000063 ], [ 74.401128638000074, 18.109728147000055 ], [ 74.400319608000089, 18.109632374000054 ], [ 74.400296689000101, 18.109089523000026 ], [ 74.399660872000084, 18.109126962000062 ], [ 74.398892749000083, 18.108900857000037 ], [ 74.398476266000046, 18.108465422000055 ], [ 74.398049182000079, 18.108752177000042 ], [ 74.39794989800005, 18.108423808000051 ], [ 74.396575215000041, 18.108410974000034 ], [ 74.392888863000039, 18.107849357000081 ], [ 74.391331999000045, 18.107285115000032 ], [ 74.38927793200007, 18.106915657000066 ], [ 74.38818002400005, 18.106399173000057 ], [ 74.387401305000083, 18.106508017000071 ], [ 74.386549050000042, 18.106241895000039 ], [ 74.386558317000024, 18.106973859000053 ], [ 74.386179527000081, 18.10718176600006 ], [ 74.38485339100005, 18.108888551000067 ], [ 74.384894599000063, 18.107655185000063 ], [ 74.384679223000035, 18.107697975000065 ], [ 74.384351864000053, 18.105999427000032 ], [ 74.383329992000029, 18.105713091000037 ], [ 74.381353085000072, 18.105551197000072 ], [ 74.380195285000084, 18.105501509000078 ], [ 74.37966609800003, 18.104983324000049 ], [ 74.378972327000014, 18.104140745000056 ], [ 74.378648617000053, 18.104250204000042 ], [ 74.37846782900003, 18.103425058000031 ], [ 74.378079639000077, 18.102950877000072 ], [ 74.377646943000059, 18.10437316600008 ], [ 74.377656553000065, 18.107490012000031 ], [ 74.37762916700008, 18.108008748000032 ], [ 74.376619890000029, 18.10817096400007 ], [ 74.376553732000048, 18.108967297000053 ], [ 74.374615512000048, 18.108955599000076 ], [ 74.374324085000083, 18.110025537000073 ], [ 74.374198615000068, 18.111136726000044 ], [ 74.37375684900006, 18.111136620000028 ], [ 74.373625400000051, 18.111508551000046 ], [ 74.374141966000082, 18.11285082000007 ], [ 74.375233456000046, 18.11555239400008 ], [ 74.375611287000083, 18.117130631000069 ], [ 74.375854053000054, 18.118924441000051 ], [ 74.376274400000057, 18.121661018000058 ], [ 74.37672279500002, 18.123656155000052 ], [ 74.377436469000031, 18.127155888000065 ], [ 74.377913055000093, 18.129798252000057 ], [ 74.378203960000064, 18.130849145000074 ], [ 74.378813992000048, 18.133411773000034 ], [ 74.379835112000052, 18.138179187000052 ], [ 74.380341076000022, 18.140186995000025 ], [ 74.380860781000095, 18.142554254000061 ], [ 74.381589047000034, 18.144878180000038 ], [ 74.382131930000057, 18.146892458000028 ], [ 74.382690017000058, 18.148781294000059 ], [ 74.383391610000047, 18.149778782000055 ], [ 74.384534692000059, 18.15152518400004 ], [ 74.384955826000066, 18.152214516000075 ], [ 74.386059611000064, 18.152123776000053 ], [ 74.387215117000039, 18.151724180000031 ], [ 74.389787237000036, 18.151134182000082 ], [ 74.390466996000043, 18.151128265000072 ], [ 74.392064207000033, 18.152652572000022 ], [ 74.395325511000067, 18.154106976000037 ], [ 74.397013863000055, 18.154385468000051 ], [ 74.396842577000015, 18.155586842000044 ], [ 74.397012131000054, 18.155639243000049 ], [ 74.398603134000041, 18.155353834000039 ], [ 74.39955864000008, 18.155355630000031 ], [ 74.399872108000054, 18.157164970000057 ], [ 74.399692153000046, 18.158448404000072 ], [ 74.40048101900004, 18.158564604000052 ], [ 74.402346089000062, 18.158340689000056 ], [ 74.403905755000054, 18.157972564000037 ], [ 74.404561088000065, 18.157558835000032 ], [ 74.405933850000054, 18.15723618200008 ], [ 74.407603525000098, 18.15690592000005 ], [ 74.409228111000061, 18.156537083000046 ], [ 74.412396312000041, 18.155705243000057 ], [ 74.412616797000069, 18.154441927000054 ], [ 74.413199151000086, 18.153442040000073 ], [ 74.415184289000109, 18.152982378000047 ] ] ] } },
{ "type": "Feature", "properties": { "SUB_DIST": "Baramati", "DISTRICT": "Pune", "STATE": "Maharashtra", "TYPE": "village", "NAME": "Malegaon Bk", "CEN_2001": "275210419903178800", "TARGET_NAME": "Malegaon Bk", "area_sqkm": 18.57, "centroid_lon": 74.5091, "centroid_lat": 18.12852, "panchayat_id": "P10", "block_id": "B01_BARAMATI", "block_name": "Baramati", "district_name": "Pune", "state_name": "Maharashtra" }, "geometry": { "type": "Polygon", "coordinates": [ [ [ 74.48287770000006, 18.171038171000081 ], [ 74.484338515000047, 18.170711071000028 ], [ 74.485833514000021, 18.170102511000039 ], [ 74.48675559000003, 18.16992473200003 ], [ 74.489758669000096, 18.16906551500006 ], [ 74.491184145000048, 18.168921275000059 ], [ 74.494325839000069, 18.168325625000026 ], [ 74.495258887000034, 18.168335015000025 ], [ 74.494780364000064, 18.165247551000046 ], [ 74.494483096000081, 18.16177101400007 ], [ 74.494405183000097, 18.160199255000066 ], [ 74.494281427000047, 18.15920570600003 ], [ 74.494442053000057, 18.158015710000033 ], [ 74.494753032000062, 18.157570900000056 ], [ 74.494906973000084, 18.157054677000083 ], [ 74.494567504000045, 18.156149033000077 ], [ 74.494690416000097, 18.155650483000045 ], [ 74.495087061000063, 18.155188643000031 ], [ 74.495858975000033, 18.154038820000043 ], [ 74.496066664000097, 18.153299496000045 ], [ 74.496605849000076, 18.152309219000074 ], [ 74.49692776600007, 18.151552239000072 ], [ 74.497099192000064, 18.150565342000053 ], [ 74.497187943000043, 18.149643195000067 ], [ 74.496974603000083, 18.149197721000068 ], [ 74.497392765000043, 18.148555644000055 ], [ 74.497744676000096, 18.148397915000032 ], [ 74.49823462100008, 18.148590451000075 ], [ 74.498775003000048, 18.148975722000053 ], [ 74.499070162000066, 18.148645632000068 ], [ 74.498992390000069, 18.147946163000032 ], [ 74.49963773900005, 18.14656128200005 ], [ 74.500042725000071, 18.146406569000078 ], [ 74.500812523000036, 18.146451739000046 ], [ 74.501604813000029, 18.146229925000057 ], [ 74.501861185000067, 18.146010599000022 ], [ 74.502800541000056, 18.14548346700008 ], [ 74.503578339000043, 18.145156290000042 ], [ 74.504381287000058, 18.144932389000079 ], [ 74.50514012800005, 18.144583175000037 ], [ 74.505734823000054, 18.144107530000042 ], [ 74.507042096000077, 18.143466244000024 ], [ 74.508730005000061, 18.142371278000038 ], [ 74.509858259000055, 18.141788655000031 ], [ 74.510176711000042, 18.141437530000076 ], [ 74.50994268200003, 18.140571257000033 ], [ 74.50990229000007, 18.139794147000035 ], [ 74.509938237000014, 18.138196847000074 ], [ 74.510210704000045, 18.137894972000034 ], [ 74.511467091000057, 18.137750833000041 ], [ 74.512270321000074, 18.137541233000036 ], [ 74.512966404000068, 18.137085392000081 ], [ 74.513675264000042, 18.136478179000054 ], [ 74.514656478000077, 18.13594335800008 ], [ 74.516058673000032, 18.135434892000031 ], [ 74.517148157000065, 18.134845310000067 ], [ 74.518969001000087, 18.135079799000042 ], [ 74.519603676000045, 18.135286890000028 ], [ 74.52128631800008, 18.13516056200007 ], [ 74.522936807000036, 18.135186001000026 ], [ 74.526412654000069, 18.134787776000056 ], [ 74.528783641000089, 18.134483162000041 ], [ 74.530223957000047, 18.134179183000075 ], [ 74.532360600000061, 18.133814598000079 ], [ 74.532707452000054, 18.133977231000078 ], [ 74.533062552000047, 18.133664550000052 ], [ 74.535107068000059, 18.133397262000077 ], [ 74.536141747000045, 18.133523664000052 ], [ 74.536370946000019, 18.133103761000033 ], [ 74.536964014000034, 18.131391244000046 ], [ 74.537428375000061, 18.130188260000072 ], [ 74.538256108000041, 18.127732134000038 ], [ 74.538888671000052, 18.125469126000041 ], [ 74.539513927000044, 18.125259572000058 ], [ 74.541074320000064, 18.12499474100003 ], [ 74.541983003000055, 18.124931584000027 ], [ 74.543478342000057, 18.12505545300008 ], [ 74.543939820000062, 18.122557761000056 ], [ 74.543969617000087, 18.120854934000029 ], [ 74.544164234000078, 18.118796438000061 ], [ 74.541759183000082, 18.118778739000053 ], [ 74.541832479000064, 18.117866168000042 ], [ 74.541986320000035, 18.117080889000025 ], [ 74.538081760000068, 18.116915940000077 ], [ 74.536569129000057, 18.116753099000054 ], [ 74.535553094000093, 18.11669942400005 ], [ 74.52842580500004, 18.116227331000061 ], [ 74.528257015000065, 18.11341320300005 ], [ 74.52804726600003, 18.113174401000041 ], [ 74.526323385000083, 18.113434147000081 ], [ 74.519023324000074, 18.114159125000079 ], [ 74.516092653000044, 18.114422836000074 ], [ 74.513193642000047, 18.114588020000049 ], [ 74.513020347000079, 18.114251813000074 ], [ 74.513026370000034, 18.113124522000081 ], [ 74.512787221000053, 18.108761280000067 ], [ 74.512848198000015, 18.107048342000041 ], [ 74.513229338000045, 18.104578375000077 ], [ 74.513596039000063, 18.101803742000079 ], [ 74.515319985000104, 18.099236241000025 ], [ 74.51403513300005, 18.099001840000028 ], [ 74.514046923000095, 18.096894179000063 ], [ 74.512884297000085, 18.096790289000069 ], [ 74.509496900000045, 18.096393568000053 ], [ 74.507343899000034, 18.09629066500003 ], [ 74.503982906000019, 18.096447232000056 ], [ 74.502004049000064, 18.096393661000036 ], [ 74.498955027000093, 18.096504525000057 ], [ 74.496629314000089, 18.096665427000065 ], [ 74.496402500000045, 18.097125033000054 ], [ 74.496467819000031, 18.09814833900003 ], [ 74.496239462000077, 18.098260193000044 ], [ 74.496040809000093, 18.098974335000037 ], [ 74.495633310000073, 18.099009696000053 ], [ 74.494774736000068, 18.10139142200007 ], [ 74.494759120000097, 18.101543583000023 ], [ 74.495771747000049, 18.104925529000077 ], [ 74.497608979000077, 18.104859777000065 ], [ 74.497720318000063, 18.105729633000063 ], [ 74.49602229400007, 18.105790615000046 ], [ 74.496788796000018, 18.108626603000058 ], [ 74.497201092000083, 18.108758212000055 ], [ 74.497883250000044, 18.109196603000044 ], [ 74.498081633000083, 18.109470532000046 ], [ 74.498918695000057, 18.112609819000056 ], [ 74.499732205000043, 18.115805019000057 ], [ 74.501149922000096, 18.120852009000036 ], [ 74.501657500000093, 18.122548154000071 ], [ 74.502457599000081, 18.125518488000072 ], [ 74.501342279000085, 18.12577259100004 ], [ 74.498716146000049, 18.126307834000041 ], [ 74.497348142000078, 18.127166756000069 ], [ 74.496924243000109, 18.128483958000061 ], [ 74.497038143000054, 18.129025351000056 ], [ 74.497479185000046, 18.130374749000058 ], [ 74.498051546000056, 18.13085796900004 ], [ 74.498677360000045, 18.13113520800005 ], [ 74.498639184000083, 18.132981685000065 ], [ 74.498554271000074, 18.134387079000081 ], [ 74.497936373000073, 18.135956707000052 ], [ 74.493845083000068, 18.135962865000071 ], [ 74.489020657000097, 18.136397977000062 ], [ 74.488552235000043, 18.136698348000042 ], [ 74.486796439000059, 18.137346226000034 ], [ 74.486725177000039, 18.137573245000059 ], [ 74.487021512000069, 18.142181436000044 ], [ 74.487480302000051, 18.143816086000076 ], [ 74.487884094000052, 18.145405565000033 ], [ 74.488455938000072, 18.148092624000071 ], [ 74.48864956000007, 18.149465251000038 ], [ 74.487379483000055, 18.151081555000083 ], [ 74.48721997800007, 18.15121895600004 ], [ 74.485501409000065, 18.153549676000068 ], [ 74.485093380000094, 18.15621791000007 ], [ 74.484900821000068, 18.15767535700008 ], [ 74.484403010000065, 18.160687135000046 ], [ 74.483505424000057, 18.163685942000029 ], [ 74.482787157000061, 18.165658828000065 ], [ 74.482174361000034, 18.168481530000061 ], [ 74.481865367000083, 18.169218811000064 ], [ 74.48287770000006, 18.171038171000081 ] ] ] } },
{ "type": "Feature", "properties": { "SUB_DIST": "Baramati", "DISTRICT": "Pune", "STATE": "Maharashtra", "TYPE": "village", "NAME": "Rui", "CEN_2001": "275210419903180900", "TARGET_NAME": "Rui", "area_sqkm": 4.29, "centroid_lon": 74.61563, "centroid_lat": 18.18312, "panchayat_id": "P11", "block_id": "B01_BARAMATI", "block_name": "Baramati", "district_name": "Pune", "state_name": "Maharashtra" }, "geometry": { "type": "Polygon", "coordinates": [ [ [ 74.627616746000058, 18.191597344000062 ], [ 74.627506704000041, 18.189959076000036 ], [ 74.627337042000065, 18.189101969000035 ], [ 74.627269697000045, 18.187583453000062 ], [ 74.627212823000036, 18.187377185000063 ], [ 74.626564266000059, 18.186702389000057 ], [ 74.626018250000058, 18.185400367000057 ], [ 74.625837895000046, 18.184746884000045 ], [ 74.625541144000053, 18.184258605000029 ], [ 74.625354879000028, 18.18364909000007 ], [ 74.62473130100004, 18.182696983000024 ], [ 74.623709672000061, 18.180849606000034 ], [ 74.623015472000077, 18.179666729000083 ], [ 74.622594376000038, 18.17874416900003 ], [ 74.622042545000042, 18.176757745000032 ], [ 74.622208631000021, 18.175681552000071 ], [ 74.622981995000018, 18.17282461100007 ], [ 74.623108, 18.171821829000073 ], [ 74.623082736000043, 18.170424220000029 ], [ 74.621374918000058, 18.170376819000072 ], [ 74.620022576000039, 18.170469814000057 ], [ 74.618660731000034, 18.170869012000033 ], [ 74.616859844000032, 18.171076722000073 ], [ 74.61584198900006, 18.171090332000066 ], [ 74.616014809000035, 18.171778526000033 ], [ 74.615922260000062, 18.172731246000069 ], [ 74.614771351000044, 18.172727538000057 ], [ 74.612885322000054, 18.173123323000031 ], [ 74.612450481000067, 18.173088662000058 ], [ 74.61218185500006, 18.173359446000067 ], [ 74.611654610000087, 18.174547933000042 ], [ 74.611261278000043, 18.175207484000055 ], [ 74.60863073900002, 18.175187372000039 ], [ 74.606874984000058, 18.175123543000037 ], [ 74.605430750000025, 18.175445296000078 ], [ 74.605128467000043, 18.175580681000042 ], [ 74.605442551000053, 18.176443062000033 ], [ 74.605851474000076, 18.178261263000028 ], [ 74.606085665000094, 18.179954908000077 ], [ 74.606334060000052, 18.181258504000031 ], [ 74.606384091000052, 18.182638473000051 ], [ 74.606456026000046, 18.183109079000076 ], [ 74.606282803000042, 18.185205937000031 ], [ 74.606253620000089, 18.186834101000045 ], [ 74.606850441000063, 18.192271903000066 ], [ 74.607157505000032, 18.194923274000075 ], [ 74.608674752000056, 18.194514973000025 ], [ 74.608937500000067, 18.196018360000043 ], [ 74.611008766000054, 18.195405010000062 ], [ 74.610722209000073, 18.194224493000039 ], [ 74.612395750000076, 18.193724787000065 ], [ 74.615050241000063, 18.192372050000074 ], [ 74.614965481000098, 18.191818598000058 ], [ 74.618644175000043, 18.190178352000036 ], [ 74.619969140000094, 18.189750417000031 ], [ 74.620385726000038, 18.190247388000046 ], [ 74.620834272000067, 18.191282104000038 ], [ 74.620761150000064, 18.192122533000024 ], [ 74.621640090000085, 18.192034532000033 ], [ 74.627616746000058, 18.191597344000062 ] ] ] } },
{ "type": "Feature", "properties": { "SUB_DIST": "Baramati", "DISTRICT": "Pune", "STATE": "Maharashtra", "TYPE": "village", "NAME": "Shirsuphal", "CEN_2001": "275210419903172700", "TARGET_NAME": "Shirsuphal", "area_sqkm": 33.85, "centroid_lon": 74.59257, "centroid_lat": 18.32376, "panchayat_id": "P12", "block_id": "B01_BARAMATI", "block_name": "Baramati", "district_name": "Pune", "state_name": "Maharashtra" }, "geometry": { "type": "Polygon", "coordinates": [ [ [ 74.58509872300003, 18.356281285000026 ], [ 74.588815486000044, 18.354405629000045 ], [ 74.593066283000056, 18.352659648000042 ], [ 74.600634031000084, 18.349578761000036 ], [ 74.608452926000027, 18.345047870000023 ], [ 74.609486472000057, 18.34431306200003 ], [ 74.61050748200006, 18.343398396000055 ], [ 74.611214626000077, 18.341316874000025 ], [ 74.611512946000062, 18.340309327000057 ], [ 74.611610842000061, 18.339393872000073 ], [ 74.611769008000081, 18.339089194000056 ], [ 74.612939563000054, 18.339423798000041 ], [ 74.613951507000081, 18.339620861000071 ], [ 74.615331270000055, 18.340348386000073 ], [ 74.615807498000038, 18.340727 ], [ 74.616491818000029, 18.341600494000033 ], [ 74.61714706000005, 18.34187893700005 ], [ 74.617735042000049, 18.341799850000026 ], [ 74.618276700000081, 18.341074561000031 ], [ 74.618761833000036, 18.340637589000035 ], [ 74.619493608000099, 18.340423988000051 ], [ 74.620327300000028, 18.340653223000061 ], [ 74.621297571000071, 18.341410602000053 ], [ 74.621753249000065, 18.342043892000046 ], [ 74.622522466000078, 18.341815698000065 ], [ 74.622942789000035, 18.341797847000066 ], [ 74.623098494000018, 18.340676108000025 ], [ 74.622986515000022, 18.33943894700008 ], [ 74.622553786000083, 18.33649344600008 ], [ 74.622370150000023, 18.334637548000046 ], [ 74.622445957000068, 18.333218294000066 ], [ 74.625247050000027, 18.33297520300005 ], [ 74.625416427000047, 18.328525263000074 ], [ 74.625208131000065, 18.326622494000048 ], [ 74.625254523000081, 18.326137750000044 ], [ 74.625220155000079, 18.323611626000062 ], [ 74.624884350000045, 18.321601333000046 ], [ 74.62449644700007, 18.318017063000074 ], [ 74.624518832000021, 18.315632232000034 ], [ 74.624599636000085, 18.314757575000044 ], [ 74.624053136000029, 18.310825551000054 ], [ 74.623704311000026, 18.307785933000048 ], [ 74.623614857000049, 18.306247190000025 ], [ 74.624487716, 18.306396925000058 ], [ 74.624859064000091, 18.304211987000031 ], [ 74.624794671000075, 18.30275847200005 ], [ 74.623578948000031, 18.302582760000064 ], [ 74.623527231000082, 18.302437599000026 ], [ 74.61938118700003, 18.304369291000057 ], [ 74.619580025000062, 18.300364633000076 ], [ 74.617064030000066, 18.302051197000033 ], [ 74.615801976000043, 18.30296667500005 ], [ 74.613352093000046, 18.304126490000044 ], [ 74.610652698000095, 18.305228778000071 ], [ 74.609069479000098, 18.305929986000024 ], [ 74.608133558000077, 18.303822787000062 ], [ 74.606914328000073, 18.29986116900006 ], [ 74.60687336200003, 18.298583182000073 ], [ 74.604717473000051, 18.29818866100004 ], [ 74.601278876000023, 18.297862495000064 ], [ 74.600458105000016, 18.297872205000033 ], [ 74.597553219000105, 18.298400375000025 ], [ 74.595062147000078, 18.296824884000046 ], [ 74.592741338000039, 18.294725681000042 ], [ 74.591587693000065, 18.295277304000024 ], [ 74.591105139000049, 18.294481204000022 ], [ 74.590732698000068, 18.295287760000065 ], [ 74.58996533100003, 18.296549606000038 ], [ 74.587387884000066, 18.296022679000028 ], [ 74.584925354000063, 18.293471343000022 ], [ 74.583836339000058, 18.29239111000004 ], [ 74.583167632000084, 18.292470524000066 ], [ 74.582784192000062, 18.291790657000032 ], [ 74.579866605000063, 18.291555422000048 ], [ 74.57841077900008, 18.291584755000031 ], [ 74.575852801000039, 18.291784305000022 ], [ 74.573732569000057, 18.291708338000031 ], [ 74.572804753000057, 18.291718556000031 ], [ 74.572602012000033, 18.291638828000032 ], [ 74.572943492000036, 18.292393508000028 ], [ 74.573957496000048, 18.294854242000046 ], [ 74.576262552000046, 18.300734978000033 ], [ 74.576897464000069, 18.302798898000049 ], [ 74.577763270000062, 18.305152710000076 ], [ 74.578554410000038, 18.306474323000032 ], [ 74.57888567000002, 18.307315033000069 ], [ 74.579025474000062, 18.308189506000076 ], [ 74.579137661000061, 18.31005182500008 ], [ 74.579283611000065, 18.311536066000031 ], [ 74.577833248000061, 18.31175633600003 ], [ 74.576513362000071, 18.311895677000059 ], [ 74.575314050000017, 18.311695304000072 ], [ 74.573875055000016, 18.311164985000065 ], [ 74.573489620000032, 18.310899263000071 ], [ 74.573056578000021, 18.310331218000044 ], [ 74.572812152000012, 18.309398711000032 ], [ 74.572423996000055, 18.308281015000034 ], [ 74.572103230000039, 18.307813448000051 ], [ 74.571229883000072, 18.307099530000073 ], [ 74.570557124000047, 18.306785840000032 ], [ 74.569815776000041, 18.30654712400008 ], [ 74.568306985000063, 18.305902850000052 ], [ 74.567667032000031, 18.305863578000071 ], [ 74.567307846000048, 18.305992413000073 ], [ 74.566549124000062, 18.306590154000048 ], [ 74.565457623000043, 18.307270328000079 ], [ 74.565432012, 18.307545875000073 ], [ 74.564740976000053, 18.309463215000051 ], [ 74.563956686000054, 18.312160475000042 ], [ 74.563143051000068, 18.31527829100003 ], [ 74.563582513000014, 18.31548218000006 ], [ 74.563581485000057, 18.319161303000048 ], [ 74.567121965000098, 18.319140715000064 ], [ 74.567740163000053, 18.320921126000034 ], [ 74.559688728000083, 18.324684343000058 ], [ 74.559824028000051, 18.326595432000033 ], [ 74.560048472000048, 18.328423189000031 ], [ 74.557814197000084, 18.329304591000039 ], [ 74.557011673000034, 18.329508519000058 ], [ 74.556479955000043, 18.331725007000045 ], [ 74.55535481500003, 18.335770997000054 ], [ 74.557169123000065, 18.336468539000069 ], [ 74.558930196000034, 18.337692230000073 ], [ 74.559551555000041, 18.338055545000032 ], [ 74.560600136000048, 18.338961918000059 ], [ 74.561182823000081, 18.339571232000029 ], [ 74.562082102, 18.340674547000049 ], [ 74.562426437000056, 18.341236281000022 ], [ 74.562743137000027, 18.342177304000074 ], [ 74.564945559000094, 18.341731066000026 ], [ 74.56665110800003, 18.341815567000033 ], [ 74.567714646000084, 18.342095603000075 ], [ 74.568599551000034, 18.342571661000026 ], [ 74.569292133000019, 18.343156942000064 ], [ 74.57013681600003, 18.343766951000077 ], [ 74.570985861000054, 18.344225533000042 ], [ 74.572501098000018, 18.344323848000041 ], [ 74.574020059000091, 18.346446378000049 ], [ 74.57454522200004, 18.347586911000064 ], [ 74.574703453000041, 18.347725020000041 ], [ 74.576160533000049, 18.348318372000048 ], [ 74.578514871000039, 18.348580067000057 ], [ 74.581284677000056, 18.350087100000056 ], [ 74.583302818000035, 18.351103779000031 ], [ 74.583723533000068, 18.35307657900006 ], [ 74.584551436000083, 18.355392344000048 ], [ 74.584575847000053, 18.355725200000048 ], [ 74.58509872300003, 18.356281285000026 ] ] ] } },
{ "type": "Feature", "properties": { "SUB_DIST": "Baramati", "DISTRICT": "Pune", "STATE": "Maharashtra", "TYPE": "village", "NAME": "Songaon", "CEN_2001": "275210419903182000", "TARGET_NAME": "Songaon", "area_sqkm": 14.15, "centroid_lon": 74.64946, "centroid_lat": 18.07406, "panchayat_id": "P13", "block_id": "B01_BARAMATI", "block_name": "Baramati", "district_name": "Pune", "state_name": "Maharashtra" }, "geometry": { "type": "Polygon", "coordinates": [ [ [ 74.673543112000033, 18.091479510000056 ], [ 74.671228079000059, 18.08580035600005 ], [ 74.669631629000051, 18.082173891000021 ], [ 74.669141954000054, 18.080991290000043 ], [ 74.66840428400009, 18.079989672000067 ], [ 74.666470945000071, 18.077776518000064 ], [ 74.666085337000069, 18.076199864000046 ], [ 74.665905677000069, 18.074201899000062 ], [ 74.666170412000028, 18.072917287000053 ], [ 74.666846718000031, 18.071959123000063 ], [ 74.667465852000078, 18.071822735000072 ], [ 74.668323662000034, 18.071937632000076 ], [ 74.66866359300009, 18.071610597000074 ], [ 74.666611877000037, 18.071430086000078 ], [ 74.666490587000055, 18.071168356000047 ], [ 74.666575784000031, 18.070656005000046 ], [ 74.666367882000017, 18.069843510000052 ], [ 74.666456377000017, 18.069254036000075 ], [ 74.664826510000069, 18.069797273000059 ], [ 74.66404202700005, 18.069945002000054 ], [ 74.662497462000019, 18.069837043000064 ], [ 74.660467556000057, 18.069599463000028 ], [ 74.658450991000052, 18.069529902000053 ], [ 74.656752332000025, 18.069240168000022 ], [ 74.655047652000036, 18.068727792000058 ], [ 74.654349342000046, 18.068330061000037 ], [ 74.65385888400003, 18.067716524000044 ], [ 74.653570246000058, 18.066863016000074 ], [ 74.653360611000039, 18.065464413000029 ], [ 74.65371672000002, 18.063854790000054 ], [ 74.654130108000047, 18.06252236400007 ], [ 74.654073792000077, 18.061567178000075 ], [ 74.65408943500006, 18.060103561000062 ], [ 74.653831759000056, 18.058948491000027 ], [ 74.65360728900005, 18.058504460000051 ], [ 74.652851790000042, 18.057327697000066 ], [ 74.651682507000018, 18.055721290000061 ], [ 74.651181882000046, 18.054946404000081 ], [ 74.650556505000054, 18.053683873000065 ], [ 74.649912014000051, 18.052710223000076 ], [ 74.649174460000054, 18.051995145000038 ], [ 74.64812035500006, 18.05137774200006 ], [ 74.646807296000077, 18.050854637000047 ], [ 74.646211267000083, 18.050543725000068 ], [ 74.645154848000061, 18.049620710000056 ], [ 74.644608555000062, 18.048872826000036 ], [ 74.644240770000081, 18.048020632000028 ], [ 74.644027498000085, 18.047233606000077 ], [ 74.643289804000062, 18.045364790000065 ], [ 74.642570136000046, 18.04460987900006 ], [ 74.641800894000085, 18.044229232000074 ], [ 74.640273836000048, 18.044045419000046 ], [ 74.639739488000032, 18.044077170000037 ], [ 74.639105428000065, 18.044248273000047 ], [ 74.638353108000047, 18.044701242000027 ], [ 74.637883033000037, 18.045214047000059 ], [ 74.637296360000065, 18.046276726000031 ], [ 74.637081948000059, 18.046791836000065 ], [ 74.636913465000106, 18.047483804000024 ], [ 74.636728640000058, 18.049051611000042 ], [ 74.636563961000064, 18.049736580000051 ], [ 74.636142519000018, 18.050946008000039 ], [ 74.635838279000026, 18.051533669000037 ], [ 74.635341005000029, 18.052153748000027 ], [ 74.634221932000059, 18.053382878000033 ], [ 74.632311519000027, 18.055129211000061 ], [ 74.631329965000106, 18.055889630000024 ], [ 74.629640549000044, 18.056779354000071 ], [ 74.629793713000069, 18.058550052000044 ], [ 74.629844111000054, 18.06002772100004 ], [ 74.629824660000068, 18.061823955000026 ], [ 74.629673349000029, 18.063514085000062 ], [ 74.629154980000081, 18.066804203000061 ], [ 74.629043426000067, 18.067876057000035 ], [ 74.629173663000074, 18.06992177900003 ], [ 74.629302890000062, 18.070297420000031 ], [ 74.630807025000081, 18.069396082000026 ], [ 74.631149720000067, 18.069306088000076 ], [ 74.633472200000014, 18.068967233000023 ], [ 74.63452518600009, 18.068650781000027 ], [ 74.63548495600007, 18.067924769000062 ], [ 74.635746529000059, 18.068282082000049 ], [ 74.636573029000033, 18.070066148000027 ], [ 74.637147006000077, 18.071454767000038 ], [ 74.637523220000077, 18.072978011000036 ], [ 74.637709649000058, 18.07408022300007 ], [ 74.637839, 18.074380779000027 ], [ 74.638446796000025, 18.074247439000033 ], [ 74.638856488000044, 18.075848931000053 ], [ 74.639411965000093, 18.075726185000061 ], [ 74.639421029000061, 18.07599892800005 ], [ 74.638788610000034, 18.076171656000046 ], [ 74.639242646000071, 18.078310356000028 ], [ 74.639745908000066, 18.078346858000025 ], [ 74.640374898000047, 18.080540466000059 ], [ 74.640546129000029, 18.081552221000035 ], [ 74.640937020000081, 18.083393576000045 ], [ 74.641425892000029, 18.087250812000036 ], [ 74.641769585000105, 18.089727172000035 ], [ 74.642105560000061, 18.093708220000053 ], [ 74.641818966000073, 18.094739116000028 ], [ 74.64175622700003, 18.096210867000025 ], [ 74.642518998000071, 18.096329215000026 ], [ 74.643188690000045, 18.096465344000027 ], [ 74.644967090000094, 18.096381653000037 ], [ 74.646561007000059, 18.096225498000027 ], [ 74.648753049000064, 18.096234156000037 ], [ 74.648751150000052, 18.098073358000025 ], [ 74.648608487000061, 18.098760428000052 ], [ 74.650061600000072, 18.098802268000043 ], [ 74.651932917000053, 18.098963641000072 ], [ 74.654304615000058, 18.098784906000049 ], [ 74.654068881000057, 18.096895490000069 ], [ 74.654412300000047, 18.09691710400006 ], [ 74.656246195000051, 18.096467614000066 ], [ 74.658980024000059, 18.095918833000038 ], [ 74.660417960000075, 18.095351170000072 ], [ 74.660663520000085, 18.094902890000071 ], [ 74.662198411000077, 18.094373248000068 ], [ 74.662433871000076, 18.094539116000078 ], [ 74.663374299000054, 18.094251587000031 ], [ 74.662301076000034, 18.092410170000047 ], [ 74.667101192000075, 18.091971116000032 ], [ 74.670681943000019, 18.091709523000077 ], [ 74.673543112000033, 18.091479510000056 ] ] ] } },
{ "type": "Feature", "properties": { "SUB_DIST": "Baramati", "DISTRICT": "Pune", "STATE": "Maharashtra", "TYPE": "village", "NAME": "Vadgaon Nimbalkar", "CEN_2001": "275210419903176700", "TARGET_NAME": "Vadgaon Nimbalkar", "area_sqkm": 17.01, "centroid_lon": 74.36312, "centroid_lat": 18.13944, "panchayat_id": "P14", "block_id": "B01_BARAMATI", "block_name": "Baramati", "district_name": "Pune", "state_name": "Maharashtra" }, "geometry": { "type": "Polygon", "coordinates": [ [ [ 74.384534692000059, 18.15152518400004 ], [ 74.383391610000047, 18.149778782000055 ], [ 74.382690017000058, 18.148781294000059 ], [ 74.382131930000057, 18.146892458000028 ], [ 74.381589047000034, 18.144878180000038 ], [ 74.380860781000095, 18.142554254000061 ], [ 74.380341076000022, 18.140186995000025 ], [ 74.379835112000052, 18.138179187000052 ], [ 74.378813992000048, 18.133411773000034 ], [ 74.378203960000064, 18.130849145000074 ], [ 74.377913055000093, 18.129798252000057 ], [ 74.377436469000031, 18.127155888000065 ], [ 74.37672279500002, 18.123656155000052 ], [ 74.376274400000057, 18.121661018000058 ], [ 74.375854053000054, 18.118924441000051 ], [ 74.375611287000083, 18.117130631000069 ], [ 74.375233456000046, 18.11555239400008 ], [ 74.374141966000082, 18.11285082000007 ], [ 74.373625400000051, 18.111508551000046 ], [ 74.371761617000047, 18.111698782000083 ], [ 74.369420436000041, 18.111753131000061 ], [ 74.367041057000051, 18.11195401200008 ], [ 74.366330705000053, 18.112190793000028 ], [ 74.365562454000042, 18.112446870000039 ], [ 74.363671639000074, 18.112962863000067 ], [ 74.35984026200002, 18.114317699000033 ], [ 74.358843101000048, 18.115264912000047 ], [ 74.35620869800006, 18.118615095000056 ], [ 74.354363135000028, 18.121125797000051 ], [ 74.353247476000035, 18.122356683000078 ], [ 74.351705911000067, 18.123786298000027 ], [ 74.349473568000064, 18.12605490500005 ], [ 74.348196162000079, 18.12702259100007 ], [ 74.346811465000044, 18.127572446000045 ], [ 74.34607724600005, 18.127843443000078 ], [ 74.344366505000053, 18.129385641000059 ], [ 74.343196437000074, 18.130946209000058 ], [ 74.341821589000077, 18.131835048000035 ], [ 74.342362620000074, 18.132177704000075 ], [ 74.342720389000092, 18.13259148200007 ], [ 74.343365104000043, 18.133062394000035 ], [ 74.345471782000047, 18.137022724000083 ], [ 74.346084665000049, 18.138592816000028 ], [ 74.346625582000073, 18.140960754000051 ], [ 74.347002873000051, 18.14278668400004 ], [ 74.347900171000063, 18.145755918000081 ], [ 74.347861699000106, 18.145778265000047 ], [ 74.348419119000084, 18.148187593000046 ], [ 74.34885250800005, 18.151065448000061 ], [ 74.348974576000046, 18.151590409000054 ], [ 74.349325023000063, 18.153870129000047 ], [ 74.349590252000041, 18.156051015000067 ], [ 74.350269044000086, 18.159833849000051 ], [ 74.350688893000026, 18.161523143000068 ], [ 74.351039560000061, 18.163760981000053 ], [ 74.351506720000032, 18.166009455000051 ], [ 74.352161421000062, 18.169573998000033 ], [ 74.352272261000053, 18.170780588000071 ], [ 74.353616326000051, 18.170185213000028 ], [ 74.354820731000075, 18.169746976000052 ], [ 74.355502176000044, 18.169351058000078 ], [ 74.357680988000098, 18.168885455000073 ], [ 74.358878993000062, 18.167792399000064 ], [ 74.361070773000051, 18.166026547000055 ], [ 74.36296547700006, 18.164183948000076 ], [ 74.364743208000064, 18.162187287000048 ], [ 74.365289450000034, 18.161340647000028 ], [ 74.365565926000045, 18.160141031000023 ], [ 74.365942740000037, 18.15971808300003 ], [ 74.366788758000027, 18.159115639000053 ], [ 74.370175047000018, 18.157338028000034 ], [ 74.370902900000019, 18.15710040100004 ], [ 74.373336802000011, 18.155721520000043 ], [ 74.376198776000066, 18.154600023000061 ], [ 74.37820520700005, 18.153848156000041 ], [ 74.380300022000014, 18.153440472000057 ], [ 74.381898645000049, 18.152907688000031 ], [ 74.383231396000028, 18.152155844000053 ], [ 74.384534692000059, 18.15152518400004 ] ] ] } }
]
}
